{
  "type": "FeatureCollection",
  "features": [
    {
      "type": "Feature",
      "properties": {
        "norad_id": 33986,
        "name": "COSMOS 2251 DEB",
        "group": "cosmos-2251-debris",
        "lat": -35.38024182510471,
        "lon": -49.803366263970936,
        "alt_km": 746.2882058860496,
        "timestamp": "2025-12-02T08:59:33.107985+00:00",
        "meta_object_name": "COSMOS 2251 DEB",
        "meta_object_id": "1993-036FV",
        "meta_epoch": "2025-12-01T23:16:51.627072",
        "meta_mean_motion": 14.4311158,
        "meta_eccentricity": 0.0039891,
        "meta_inclination": 74.0364,
        "meta_ra_of_asc_node": 322.6763,
        "meta_arg_of_pericenter": 38.0925,
        "meta_mean_anomaly": 344.0411,
        "meta_ephemeris_type": 0,
        "meta_classification_type": "U",
        "meta_norad_cat_id": 33986,
        "meta_element_set_no": 999,
        "meta_rev_at_epoch": 87873,
        "meta_bstar": 0.00087999,
        "meta_mean_motion_dot": 2.956e-05,
        "meta_mean_motion_ddot": 0,
        "tle_line1": "1 33986U 93036FV  25335.97004198  .00002956  00000+0  87999-3 0  9992",
        "tle_line2": "2 33986  74.0364 322.6763 0039891  38.0925 344.0411 14.43111580878739"
      },
      "geometry": {
        "type": "Point",
        "coordinates": [
          -49.803366263970936,
          -35.38024182510471
        ]
      }
    },
    {
      "type": "Feature",
      "properties": {
        "norad_id": 33990,
        "name": "COSMOS 2251 DEB",
        "group": "cosmos-2251-debris",
        "lat": -59.92829825571929,
        "lon": 152.49517153504215,
        "alt_km": 1017.7510883111245,
        "timestamp": "2025-12-02T08:59:33.107995+00:00",
        "meta_object_name": "COSMOS 2251 DEB",
        "meta_object_id": "1993-036FZ",
        "meta_epoch": "2025-12-02T04:15:41.353344",
        "meta_mean_motion": 13.49938009,
        "meta_eccentricity": 0.040759,
        "meta_inclination": 73.9276,
        "meta_ra_of_asc_node": 302.9513,
        "meta_arg_of_pericenter": 325.1574,
        "meta_mean_anomaly": 45.9769,
        "meta_ephemeris_type": 0,
        "meta_classification_type": "U",
        "meta_norad_cat_id": 33990,
        "meta_element_set_no": 999,
        "meta_rev_at_epoch": 82587,
        "meta_bstar": 0.0016481,
        "meta_mean_motion_dot": 1.731e-05,
        "meta_mean_motion_ddot": 0,
        "tle_line1": "1 33990U 93036FZ  25336.17756196  .00001731  00000+0  16481-2 0  9999",
        "tle_line2": "2 33990  73.9276 302.9513 0407590 325.1574  45.9769 13.49938009825871"
      },
      "geometry": {
        "type": "Point",
        "coordinates": [
          152.49517153504215,
          -59.92829825571929
        ]
      }
    },
    {
      "type": "Feature",
      "properties": {
        "norad_id": 33992,
        "name": "COSMOS 2251 DEB",
        "group": "cosmos-2251-debris",
        "lat": 39.25162859533749,
        "lon": 11.264980733624624,
        "alt_km": 662.2756546878873,
        "timestamp": "2025-12-02T08:59:33.108006+00:00",
        "meta_object_name": "COSMOS 2251 DEB",
        "meta_object_id": "1993-036GB",
        "meta_epoch": "2025-12-02T04:11:13.071840",
        "meta_mean_motion": 14.6608144,
        "meta_eccentricity": 0.0051819,
        "meta_inclination": 74.0244,
        "meta_ra_of_asc_node": 358.1139,
        "meta_arg_of_pericenter": 119.3418,
        "meta_mean_anomaly": 306.1145,
        "meta_ephemeris_type": 0,
        "meta_classification_type": "U",
        "meta_norad_cat_id": 33992,
        "meta_element_set_no": 999,
        "meta_rev_at_epoch": 88970,
        "meta_bstar": 0.00077727,
        "meta_mean_motion_dot": 4.324e-05,
        "meta_mean_motion_ddot": 0,
        "tle_line1": "1 33992U 93036GB  25336.17445685  .00004324  00000+0  77727-3 0  9991",
        "tle_line2": "2 33992  74.0244 358.1139 0051819 119.3418 306.1145 14.66081440889706"
      },
      "geometry": {
        "type": "Point",
        "coordinates": [
          11.264980733624624,
          39.25162859533749
        ]
      }
    },
    {
      "type": "Feature",
      "properties": {
        "norad_id": 33994,
        "name": "COSMOS 2251 DEB",
        "group": "cosmos-2251-debris",
        "lat": 15.068420019692386,
        "lon": 25.171684762780494,
        "alt_km": 771.5617141721195,
        "timestamp": "2025-12-02T08:59:33.108016+00:00",
        "meta_object_name": "COSMOS 2251 DEB",
        "meta_object_id": "1993-036GD",
        "meta_epoch": "2025-12-02T02:19:09.124032",
        "meta_mean_motion": 14.41204074,
        "meta_eccentricity": 0.0023244,
        "meta_inclination": 74.0427,
        "meta_ra_of_asc_node": 210.1041,
        "meta_arg_of_pericenter": 346.474,
        "meta_mean_anomaly": 175.6605,
        "meta_ephemeris_type": 0,
        "meta_classification_type": "U",
        "meta_norad_cat_id": 33994,
        "meta_element_set_no": 999,
        "meta_rev_at_epoch": 88266,
        "meta_bstar": 0.00011325,
        "meta_mean_motion_dot": 3.4e-06,
        "meta_mean_motion_ddot": 0,
        "tle_line1": "1 33994U 93036GD  25336.09663338  .00000340  00000+0  11325-3 0  9997",
        "tle_line2": "2 33994  74.0427 210.1041 0023244 346.4740 175.6605 14.41204074882663"
      },
      "geometry": {
        "type": "Point",
        "coordinates": [
          25.171684762780494,
          15.068420019692386
        ]
      }
    },
    {
      "type": "Feature",
      "properties": {
        "norad_id": 33995,
        "name": "COSMOS 2251 DEB",
        "group": "cosmos-2251-debris",
        "lat": 54.96383630359826,
        "lon": -65.74307514534749,
        "alt_km": 734.2781234367885,
        "timestamp": "2025-12-02T08:59:33.108026+00:00",
        "meta_object_name": "COSMOS 2251 DEB",
        "meta_object_id": "1993-036GE",
        "meta_epoch": "2025-12-02T03:24:24.875712",
        "meta_mean_motion": 14.34673586,
        "meta_eccentricity": 0.0060994,
        "meta_inclination": 74.0599,
        "meta_ra_of_asc_node": 138.7376,
        "meta_arg_of_pericenter": 155.9767,
        "meta_mean_anomaly": 204.4252,
        "meta_ephemeris_type": 0,
        "meta_classification_type": "U",
        "meta_norad_cat_id": 33995,
        "meta_element_set_no": 999,
        "meta_rev_at_epoch": 87367,
        "meta_bstar": 0.0011765,
        "meta_mean_motion_dot": 3.375e-05,
        "meta_mean_motion_ddot": 0,
        "tle_line1": "1 33995U 93036GE  25336.14195458  .00003375  00000+0  11765-2 0  9995",
        "tle_line2": "2 33995  74.0599 138.7376 0060994 155.9767 204.4252 14.34673586873675"
      },
      "geometry": {
        "type": "Point",
        "coordinates": [
          -65.74307514534749,
          54.96383630359826
        ]
      }
    },
    {
      "type": "Feature",
      "properties": {
        "norad_id": 33999,
        "name": "COSMOS 2251 DEB",
        "group": "cosmos-2251-debris",
        "lat": -73.50079100466229,
        "lon": 174.57140484054204,
        "alt_km": 644.1532274999254,
        "timestamp": "2025-12-02T08:59:33.108036+00:00",
        "meta_object_name": "COSMOS 2251 DEB",
        "meta_object_id": "1993-036GJ",
        "meta_epoch": "2025-12-02T01:17:20.246784",
        "meta_mean_motion": 14.82964407,
        "meta_eccentricity": 0.0044714,
        "meta_inclination": 73.9198,
        "meta_ra_of_asc_node": 252.0812,
        "meta_arg_of_pericenter": 150.7523,
        "meta_mean_anomaly": 209.6172,
        "meta_ephemeris_type": 0,
        "meta_classification_type": "U",
        "meta_norad_cat_id": 33999,
        "meta_element_set_no": 999,
        "meta_rev_at_epoch": 89092,
        "meta_bstar": 0.0016967,
        "meta_mean_motion_dot": 0.00014016,
        "meta_mean_motion_ddot": 0,
        "tle_line1": "1 33999U 93036GJ  25336.05370656  .00014016  00000+0  16967-2 0  9997",
        "tle_line2": "2 33999  73.9198 252.0812 0044714 150.7523 209.6172 14.82964407890925"
      },
      "geometry": {
        "type": "Point",
        "coordinates": [
          174.57140484054204,
          -73.50079100466229
        ]
      }
    },
    {
      "type": "Feature",
      "properties": {
        "norad_id": 34001,
        "name": "COSMOS 2251 DEB",
        "group": "cosmos-2251-debris",
        "lat": -8.522765487047609,
        "lon": 123.10482714429719,
        "alt_km": 785.2415067644815,
        "timestamp": "2025-12-02T08:59:33.108046+00:00",
        "meta_object_name": "COSMOS 2251 DEB",
        "meta_object_id": "1993-036GL",
        "meta_epoch": "2025-12-02T00:03:46.149408",
        "meta_mean_motion": 14.37074838,
        "meta_eccentricity": 0.001947,
        "meta_inclination": 74.0382,
        "meta_ra_of_asc_node": 301.3305,
        "meta_arg_of_pericenter": 24.9991,
        "meta_mean_anomaly": 39.5686,
        "meta_ephemeris_type": 0,
        "meta_classification_type": "U",
        "meta_norad_cat_id": 34001,
        "meta_element_set_no": 999,
        "meta_rev_at_epoch": 87992,
        "meta_bstar": 0.00024685,
        "meta_mean_motion_dot": 7.08e-06,
        "meta_mean_motion_ddot": 0,
        "tle_line1": "1 34001U 93036GL  25336.00261747  .00000708  00000+0  24685-3 0  9997",
        "tle_line2": "2 34001  74.0382 301.3305 0019470  24.9991  39.5686 14.37074838879921"
      },
      "geometry": {
        "type": "Point",
        "coordinates": [
          123.10482714429719,
          -8.522765487047609
        ]
      }
    }
  ]
}